[
    {
        "Altitude(m)": 607897.6108729929,
        "Argument of Periapsis(deg)": 0.0,
        "Eccentricity": 0.0,
        "Inclination(deg)": 60.0,
        "Latitude(deg)": -14.292913307988066,
        "Longitude(deg)": 141.6187386372334,
        "Mean Anomaly(deg)": -16.363600000000087,
        "RAAN(deg)": 250.00000000000003,
        "Satellite Name": "Test1 1121",
        "Satellite Number": 1121,
        "Semi-Major Axis(m)": 6980739.136638005,
        "Time(s)": 0
    },
    {
        "Altitude(m)": 607750.8123443795,
        "Argument of Periapsis(deg)": 0.00010418945913296404,
        "Eccentricity": 0.0,
        "Inclination(deg)": 60.0,
        "Latitude(deg)": -13.758755035086896,
        "Longitude(deg)": 141.90580817883827,
        "Mean Anomaly(deg)": -15.743493854538235,
        "RAAN(deg)": 249.99957995086027,
        "Satellite Name": "Test1 1121",
        "Satellite Number": 1121,
        "Semi-Major Axis(m)": 6980739.136638005,
        "Time(s)": 10
    }
]